HAWK-6A                 
1 55327U 23011D   26068.67252600  .00007421  00000+0  32723-3 0  9992
2 55327  40.4983 210.5544 0002157   2.8660 357.2161 15.21907632172685
SPHINX/FRAZIER          
1 63232U 25052Y   26068.68371868  .00008199  00000+0  35502-3 0  9993
2 63232  97.4068 323.0895 0007242 127.8815 232.3077 15.22644280 54725
